[{"OBJECT_NAME":"NUSAT-35 (WILLIAMINA)","OBJECT_ID":"2023-001AR","EPOCH":"2026-03-09T22:28:40.425600","MEAN_MOTION":15.3245616,"ECCENTRICITY":0.00136635,"INCLINATION":97.1993,"RA_OF_ASC_NODE":124.278,"ARG_OF_PERICENTER":97.0313,"MEAN_ANOMALY":263.2484,"EPHEMERIS_TYPE":0,"CLASSIFICATION_TYPE":"U","NORAD_CAT_ID":55048,"ELEMENT_SET_NO":999,"REV_AT_EPOCH":17719,"BSTAR":0.00053479647,"MEAN_MOTION_DOT":0.0001675,"MEAN_MOTION_DDOT":0},{"OBJECT_NAME":"STARLINK-35583","OBJECT_ID":"2025-270Z","EPOCH":"2026-03-09T00:20:17.852064","MEAN_MOTION":15.27592294,"ECCENTRICITY":0.00030319,"INCLINATION":43.004,"RA_OF_ASC_NODE":59.8937,"ARG_OF_PERICENTER":288.7918,"MEAN_ANOMALY":71.2605,"EPHEMERIS_TYPE":0,"CLASSIFICATION_TYPE":"U","NORAD_CAT_ID":66611,"ELEMENT_SET_NO":999,"REV_AT_EPOCH":1771,"BSTAR":0.0012682922,"MEAN_MOTION_DOT":0.00034819,"MEAN_MOTION_DDOT":0}]
